STARLINK-31779          
1 59744U 24090Q   26067.38922977  .00000515  00000+0  28248-4 0  9990
2 59744  43.0036 190.6375 0001686 284.6515  75.4150 15.27581796103243
COSMOS 2576             
1 59773U 24092A   26068.82603826  .00015211  00000+0  56283-3 0  9991
2 59773  97.4253 186.0053 0005946 159.7731 200.3745 15.27760963101271
